[{"OBJECT_NAME":"TRANSPORTER-12 OBJECT AZ","OBJECT_ID":"2025-009AZ","EPOCH":"2026-03-09T17:02:46.667040","MEAN_MOTION":15.30349724,"ECCENTRICITY":9.87e-5,"INCLINATION":97.3981,"RA_OF_ASC_NODE":151.9913,"ARG_OF_PERICENTER":45.3581,"MEAN_ANOMALY":314.774,"EPHEMERIS_TYPE":0,"CLASSIFICATION_TYPE":"U","NORAD_CAT_ID":62656,"ELEMENT_SET_NO":999,"REV_AT_EPOCH":6379,"BSTAR":0.00054902545,"MEAN_MOTION_DOT":0.00016057,"MEAN_MOTION_DDOT":0},{"OBJECT_NAME":"STARLINK-34519","OBJECT_ID":"2025-137Q","EPOCH":"2026-03-09T22:31:30.999936","MEAN_MOTION":15.30165623,"ECCENTRICITY":0.00012048,"INCLINATION":53.1599,"RA_OF_ASC_NODE":334.0375,"ARG_OF_PERICENTER":90.559,"MEAN_ANOMALY":269.5548,"EPHEMERIS_TYPE":0,"CLASSIFICATION_TYPE":"U","NORAD_CAT_ID":64608,"ELEMENT_SET_NO":999,"REV_AT_EPOCH":4077,"BSTAR":0.0005809309,"MEAN_MOTION_DOT":0.00016867,"MEAN_MOTION_DDOT":0}]
